COMMENT,ORIGINATOR,NORAD_CAT_ID,OBJECT_NAME,OBJECT_TYPE,CLASSIFICATION_TYPE,INTLDES,EPOCH,EPOCH_MICROSECONDS,MEAN_MOTION,ECCENTRICITY,INCLINATION,RA_OF_ASC_NODE,ARG_OF_PERICENTER,MEAN_ANOMALY,EPHEMERIS_TYPE,ELEMENT_SET_NO,REV_AT_EPOCH,BSTAR,MEAN_MOTION_DOT,MEAN_MOTION_DDOT,FILE,TLE_LINE0,TLE_LINE1,TLE_LINE2,OBJECT_ID,OBJECT_NUMBER,SEMIMAJOR_AXIS,PERIOD,APOGEE,PERIGEE,DECAYED
"GENERATED VIA SPACETRACK.ORG API","18 SPCS","48894","SPACEBEE-107","PAYLOAD","U","21059R","2022-04-06 20:02:16","828800","15.14473595","0.0008738","97.5456","227.0736","359.4659","0.6562","0","999","4309","0.00071652","0.0001314","0","3391065","0 SPACEBEE-107","1 48894U 21059R   22096.83491700  .00013140  00000-0  71652-3 0  9994","2 48894  97.5456 227.0736 0008738 359.4659   0.6562 15.14473595 43094","2021-059R","48894","6900.714","95.083","528.609","516.549","1"
"GENERATED VIA SPACETRACK.ORG API","18 SPCS","48894","SPACEBEE-107","PAYLOAD","U","21059R","2022-04-06 21:37:25","390848","15.1447538","0.0008719","97.5457","227.1391","359.3586","0.7633","0","999","4310","0.00071845","0.00013177","0","3391320","0 SPACEBEE-107","1 48894U 21059R   22096.90098832  .00013177  00000-0  71845-3 0  9995","2 48894  97.5457 227.1391 0008719 359.3586   0.7633 15.14475380 43106","2021-059R","48894","6900.709","95.082","528.590","516.557","1"
"GENERATED VIA SPACETRACK.ORG API","18 SPCS","48894","SPACEBEE-107","PAYLOAD","U","21059R","2022-04-07 15:03:59","130144","15.14494737","0.0008665","97.5458","227.8599","357.0201","3.0978","0","999","4321","0.0007561","0.00013879","0","3391885","0 SPACEBEE-107","1 48894U 21059R   22097.62776771  .00013879  00000-0  75610-3 0  9993","2 48894  97.5458 227.8599 0008665 357.0201   3.0978 15.14494737 43210","2021-059R","48894","6900.650","95.081","528.494","516.536","1"
"GENERATED VIA SPACETRACK.ORG API","18 SPCS","48894","SPACEBEE-107","PAYLOAD","U","21059R","2022-04-07 21:24:32","997312","15.14502872","0.0008627","97.5458","228.122","356.4628","3.6541","0","999","4325","0.00076648","0.00014074","0","3392478","0 SPACEBEE-107","1 48894U 21059R   22097.89204858  .00014074  00000-0  76648-3 0  9994","2 48894  97.5458 228.1220 0008627 356.4628   3.6541 15.14502872 43255","2021-059R","48894","6900.625","95.081","528.443","516.537","1"
"GENERATED VIA SPACETRACK.ORG API","18 SPCS","48894","SPACEBEE-107","PAYLOAD","U","21059R","2022-04-08 02:09:58","329216","15.14508382","0.0008599","97.5458","228.3185","355.9102","4.2058","0","999","4328","0.00077765","0.00014283","0","3392691","0 SPACEBEE-107","1 48894U 21059R   22098.09025844  .00014283  00000-0  77765-3 0  9996","2 48894  97.5458 228.3185 0008599 355.9102   4.2058 15.14508382 43281","2021-059R","48894","6900.608","95.080","528.407","516.540","1"
"GENERATED VIA SPACETRACK.ORG API","18 SPCS","48894","SPACEBEE-107","PAYLOAD","U","21059R","2022-04-08 08:30:31","993344","15.14516194","0.0008586","97.5458","228.5806","355.1005","5.0141","0","999","4332","0.00076101","0.00013978","0","3393517","0 SPACEBEE-107","1 48894U 21059R   22098.35453696  .00013978  00000-0  76101-3 0  9998","2 48894  97.5458 228.5806 0008586 355.1005   5.0141 15.14516194 43320","2021-059R","48894","6900.585","95.080","528.375","516.525","1"
"GENERATED VIA SPACETRACK.ORG API","18 SPCS","48894","SPACEBEE-107","PAYLOAD","U","21059R","2022-04-08 21:11:39","60672","15.14527131","0.0008536","97.5458","229.105","353.3121","6.7996","0","999","4340","0.00061641","0.00011309","0","3393990","0 SPACEBEE-107","1 48894U 21059R   22098.88309098  .00011309  00000-0  61641-3 0  9991","2 48894  97.5458 229.1050 0008536 353.3121   6.7996 15.14527131 43400","2021-059R","48894","6900.552","95.079","528.307","516.526","1"
"GENERATED VIA SPACETRACK.ORG API","18 SPCS","48894","SPACEBEE-107","PAYLOAD","U","21059R","2022-04-09 03:32:12","434496","15.14533765","0.0008508","97.5458","229.3671","352.2746","7.8353","0","999","4344","0.00061897","0.00011358","0","3394127","0 SPACEBEE-107","1 48894U 21059R   22099.14736614  .00011358  00000-0  61897-3 0  9996","2 48894  97.5458 229.3671 0008508 352.2746   7.8353 15.14533765 43444","2021-059R","48894","6900.531","95.079","528.267","516.525","1"
"GENERATED VIA SPACETRACK.ORG API","18 SPCS","48894","SPACEBEE-107","PAYLOAD","U","21059R","2022-04-09 08:17:37","378464","15.14539926","0.0008514","97.5458","229.5637","351.5395","8.5692","0","999","4347","0.00063685","0.00011691","0","3394949","0 SPACEBEE-107","1 48894U 21059R   22099.34557151  .00011691  00000-0  63685-3 0  9992","2 48894  97.5458 229.5637 0008514 351.5395   8.5692 15.14539926 43479","2021-059R","48894","6900.513","95.078","528.253","516.503","1"
"GENERATED VIA SPACETRACK.ORG API","18 SPCS","48894","SPACEBEE-107","PAYLOAD","U","21059R","2022-04-09 20:58:43","667328","15.14553683","0.0008452","97.5455","230.0879","349.558","10.5475","0","999","4355","0.00067227","0.00012351","0","3395351","0 SPACEBEE-107","1 48894U 21059R   22099.87411652  .00012351  00000-0  67227-3 0  9995","2 48894  97.5455 230.0879 0008452 349.5580  10.5475 15.14553683 43552","2021-059R","48894","6900.471","95.078","528.168","516.504","1"
"GENERATED VIA SPACETRACK.ORG API","18 SPCS","48894","SPACEBEE-107","PAYLOAD","U","21059R","2022-04-10 08:04:41","328480","15.14564228","0.000839","97.5454","230.5466","347.6087","12.4937","0","999","4362","0.00060047","0.00011026","0","3395961","0 SPACEBEE-107","1 48894U 21059R   22100.33658945  .00011026  00000-0  60047-3 0  9998","2 48894  97.5454 230.5466 0008390 347.6087  12.4937 15.14564228 43629","2021-059R","48894","6900.439","95.077","528.093","516.514","1"
"GENERATED VIA SPACETRACK.ORG API","18 SPCS","48894","SPACEBEE-107","PAYLOAD","U","21059R","2022-04-10 08:04:41","328480","15.14564228","0.000839","97.5454","230.5466","347.6087","12.4937","0","999","4362","0.00060047","0.00011026","0","3396223","0 SPACEBEE-107","1 48894U 21059R   22100.33658945  .00011026  00000-0  60047-3 0  9998","2 48894  97.5454 230.5466 0008390 347.6087  12.4937 15.14564228 43629","2021-059R","48894","6900.439","95.077","528.093","516.514","1"
"GENERATED VIA SPACETRACK.ORG API","18 SPCS","48894","SPACEBEE-107","PAYLOAD","U","21059R","2022-04-10 20:45:46","812960","15.14578805","0.0008387","97.5454","231.0709","345.2954","14.8032","0","999","4370","0.00062904","0.00011559","0","3396586","0 SPACEBEE-107","1 48894U 21059R   22100.86512515  .00011559  00000-0  62904-3 0  9993","2 48894  97.5454 231.0709 0008387 345.2954  14.8032 15.14578805 43705","2021-059R","48894","6900.395","95.076","528.047","516.472","1"
"GENERATED VIA SPACETRACK.ORG API","18 SPCS","48894","SPACEBEE-107","PAYLOAD","U","21059R","2022-04-11 07:51:43","777728","15.14591482","0.0008351","97.5453","231.5297","343.4059","16.6898","0","999","4377","0.00064635","0.00011884","0","3397378","0 SPACEBEE-107","1 48894U 21059R   22101.32759002  .00011884  00000-0  64635-3 0  9993","2 48894  97.5453 231.5297 0008351 343.4059  16.6898 15.14591482 43771","2021-059R","48894","6900.356","95.075","527.984","516.459","1"
"GENERATED VIA SPACETRACK.ORG API","18 SPCS","48894","SPACEBEE-107","PAYLOAD","U","21059R","2022-04-11 20:32:48","592608","15.14601129","0.0008327","97.5453","232.0539","341.1103","18.9819","0","999","4385","0.00053751","0.00009871","0","3397723","0 SPACEBEE-107","1 48894U 21059R   22101.85611797  .00009871  00000-0  53751-3 0  9999","2 48894  97.5453 232.0539 0008327 341.1103  18.9819 15.14601129 43851","2021-059R","48894","6900.327","95.075","527.938","516.446","1"
"GENERATED VIA SPACETRACK.ORG API","18 SPCS","48894","SPACEBEE-107","PAYLOAD","U","21059R","2022-04-11 22:07:56","670816","15.14602527","0.0008331","97.5453","232.1195","340.8691","19.2227","0","999","4386","0.00053723","0.00009866","0","3397851","0 SPACEBEE-107","1 48894U 21059R   22101.92218369  .00009866  00000-0  53723-3 0  9998","2 48894  97.5453 232.1195 0008331 340.8691  19.2227 15.14602527 43864","2021-059R","48894","6900.323","95.074","527.936","516.439","1"
"GENERATED VIA SPACETRACK.ORG API","18 SPCS","48894","SPACEBEE-107","PAYLOAD","U","21059R","2022-04-12 13:59:17","223072","15.14619055","0.0008307","97.5454","232.7749","338.4055","21.6825","0","999","4396","0.00072809","0.00013408","0","3398537","0 SPACEBEE-107","1 48894U 21059R   22102.58283823  .00013408  00000-0  72809-3 0  9991","2 48894  97.5454 232.7749 0008307 338.4055  21.6825 15.14619055 43962","2021-059R","48894","6900.272","95.073","527.869","516.405","1"
"GENERATED VIA SPACETRACK.ORG API","18 SPCS","48894","SPACEBEE-107","PAYLOAD","U","21059R","2022-04-12 20:19:49","273248","15.14625943","0.000831","97.5456","233.037","337.2205","22.8656","0","999","4400","0.00076996","0.00014187","0","3398892","0 SPACEBEE-107","1 48894U 21059R   22102.84709807  .00014187  00000-0  76996-3 0  9991","2 48894  97.5456 233.0370 0008310 337.2205  22.8656 15.14625943 44000","2021-059R","48894","6900.251","95.073","527.851","516.382","1"
"GENERATED VIA SPACETRACK.ORG API","18 SPCS","48894","SPACEBEE-107","PAYLOAD","U","21059R","2022-04-13 04:15:29","263392","15.14630828","0.0008321","97.5459","233.3649","335.9219","24.1623","0","999","4405","0.00070203","0.00012929","0","3399107","0 SPACEBEE-107","1 48894U 21059R   22103.17742203  .00012929  00000-0  70203-3 0  9992","2 48894  97.5459 233.3649 0008321 335.9219  24.1623 15.14630828 44059","2021-059R","48894","6900.237","95.073","527.843","516.360","1"
"GENERATED VIA SPACETRACK.ORG API","18 SPCS","48894","SPACEBEE-107","PAYLOAD","U","21059R","2022-04-13 13:46:17","70816","15.14636817","0.0008328","97.546","233.7584","334.5305","25.5515","0","999","4411","0.00059983","0.00011036","0","3399963","0 SPACEBEE-107","1 48894U 21059R   22103.57380869  .00011036  00000-0  59983-3 0  9992","2 48894  97.5460 233.7584 0008328 334.5305  25.5515 15.14636817 44117","2021-059R","48894","6900.218","95.072","527.830","516.337","1"
